ONEWEB-0207             
1 48242U 21031AJ  25181.89461313 -.00000133  00000+0 -39203-3 0  9997
2 48242  87.9036 359.5784 0001635  86.5162 273.6155 13.14503643202147
ONEWEB-0208             
1 48243U 21031AK  25181.87638937  .00000192  00000+0  48330-3 0  9998
2 48243  87.9037 359.5967 0001970  87.1081 273.0274 13.14502922202157
ONEWEB-0200             
1 48244U 21031AL  25181.76379719 -.00000036  00000+0 -13278-3 0  9999
2 48244  87.9033 359.6106 0001886  88.4867 271.6479 13.14503054202060
ONEWEB-0217             
1 48245U 21031AM  25181.93188816  .00000126  00000+0  30491-3 0  9999
2 48245  87.9034 359.5618 0002081  86.5693 273.5674 13.14502693202036
ONEWEB-0211             
1 48767U 21045A   25181.88663099 -.00000033  00000+0 -12009-3 0  9992
2 48767  87.9059 329.1813 0002173  99.0271 261.1105 13.16081220199368
ONEWEB-0223             
1 48768U 21045B   25181.88446434 -.00000046  00000+0 -15554-3 0  9997
2 48768  87.9064 329.2243 0002323 102.0280 258.1111 13.15548601198211
ONEWEB-0230             
1 48769U 21045C   25181.93199187  .00000105  00000+0  24384-3 0  9999
2 48769  87.9046 329.2553 0001793 101.4064 258.7267 13.15549300198483
ONEWEB-0237             
1 48770U 21045D   25181.84486139  .00000069  00000+0  14890-3 0  9997
2 48770  87.9067 329.2518 0002143 102.6135 257.5235 13.15549117198197
